{"type": "FeatureCollection", "features": [ {"type": "Feature", "properties": {"norad_id": 33867, "name": "IRIDIUM 33 DEB", "group": "iridium-33-debris", "lat": -42.42383948375675, "lon": 169.16704319006794, "alt_km": 326.5978739574566, "timestamp": "2025-12-20T20:38:44.826449+00:00", "meta": {"OBJECT_NAME": "IRIDIUM 33 DEB", "OBJECT_ID": "1997-051AL", "EPOCH": "2025-12-20T00:00:24.546240", "MEAN_MOTION": 15.83320916, "ECCENTRICITY": 0.00135723, "INCLINATION": 86.3644, "RA_OF_ASC_NODE": 346.2932, "ARG_OF_PERICENTER": 95.1198, "MEAN_ANOMALY": 265.1629, "EPHEMERIS_TYPE": 0, "CLASSIFICATION_TYPE": "U", "NORAD_CAT_ID": 33867, "ELEMENT_SET_NO": 999, "REV_AT_EPOCH": 89625, "BSTAR": 0.0064207293, "MEAN_MOTION_DOT": 0.01574163, "MEAN_MOTION_DDOT": 0}, "tle": {"line1": "1 33867U 97051AL  25354.00028410  .01574163  00000+0  64207-2 0  9990", "line2": "2 33867  86.3644 346.2932 0013572  95.1198 265.1629 15.83320916896259"}}, "geometry": {"type": "Point", "coordinates": [169.16704319006794, -42.42383948375675]}}, {"type": "Feature", "properties": {"norad_id": 33870, "name": "IRIDIUM 33 DEB", "group": "iridium-33-debris", "lat": 85.53342131246531, "lon": 109.04346847861495, "alt_km": 724.8303956580548, "timestamp": "2025-12-20T20:38:44.826460+00:00", "meta": {"OBJECT_NAME": "IRIDIUM 33 DEB", "OBJECT_ID": "1997-051AP", "EPOCH": "2025-12-20T03:53:26.545056", "MEAN_MOTION": 14.45886051, "ECCENTRICITY": 0.00222495, "INCLINATION": 86.3743, "RA_OF_ASC_NODE": 55.0796, "ARG_OF_PERICENTER": 154.3397, "MEAN_ANOMALY": 261.7164, "EPHEMERIS_TYPE": 0, "CLASSIFICATION_TYPE": "U", "NORAD_CAT_ID": 33870, "ELEMENT_SET_NO": 999, "REV_AT_EPOCH": 88244, "BSTAR": 0.00046884783, "MEAN_MOTION_DOT": 1.69e-05, "MEAN_MOTION_DDOT": 0}, "tle": {"line1": "1 33870U 97051AP  25354.16211279  .00001690  00000+0  46885-3 0  9990", "line2": "2 33870  86.3743  55.0796 0022249 154.3397 261.7164 14.45886051882442"}}, "geometry": {"type": "Point", "coordinates": [109.04346847861495, 85.53342131246531]}}, {"type": "Feature", "properties": {"norad_id": 33881, "name": "IRIDIUM 33 DEB", "group": "iridium-33-debris", "lat": -86.24535797053503, "lon": 28.8371083168876, "alt_km": 734.703365386018, "timestamp": "2025-12-20T20:38:44.826471+00:00", "meta": {"OBJECT_NAME": "IRIDIUM 33 DEB", "OBJECT_ID": "1997-051BA", "EPOCH": "2025-12-18T18:38:37.341312", "MEAN_MOTION": 14.56678227, "ECCENTRICITY": 0.00614608, "INCLINATION": 86.3861, "RA_OF_ASC_NODE": 104.1184, "ARG_OF_PERICENTER": 155.2089, "MEAN_ANOMALY": 356.6087, "EPHEMERIS_TYPE": 0, "CLASSIFICATION_TYPE": "U", "NORAD_CAT_ID": 33881, "ELEMENT_SET_NO": 999, "REV_AT_EPOCH": 87588, "BSTAR": 0.0015458281, "MEAN_MOTION_DOT": 7.103e-05, "MEAN_MOTION_DDOT": 0}, "tle": {"line1": "1 33881U 97051BA  25352.77682108  .00007103  00000+0  15458-2 0  9996", "line2": "2 33881  86.3861 104.1184 0061460 155.2089 356.6087 14.56678227875882"}}, "geometry": {"type": "Point", "coordinates": [28.8371083168876, -86.24535797053503]}}, {"type": "Feature", "properties": {"norad_id": 33884, "name": "IRIDIUM 33 DEB", "group": "iridium-33-debris", "lat": 73.54169222666532, "lon": 173.74028168982093, "alt_km": 636.4340203895281, "timestamp": "2025-12-20T20:38:44.826482+00:00", "meta": {"OBJECT_NAME": "IRIDIUM 33 DEB", "OBJECT_ID": "1997-051BD", "EPOCH": "2025-12-20T12:38:08.754144", "MEAN_MOTION": 14.7756889, "ECCENTRICITY": 0.00091521, "INCLINATION": 86.3691, "RA_OF_ASC_NODE": 6.3031, "ARG_OF_PERICENTER": 293.2876, "MEAN_ANOMALY": 198.595, "EPHEMERIS_TYPE": 0, "CLASSIFICATION_TYPE": "U", "NORAD_CAT_ID": 33884, "ELEMENT_SET_NO": 999, "REV_AT_EPOCH": 88962, "BSTAR": 0.0009197818, "MEAN_MOTION_DOT": 6.597e-05, "MEAN_MOTION_DDOT": 0}, "tle": {"line1": "1 33884U 97051BD  25354.52649021  .00006597  00000+0  91978-3 0  9999", "line2": "2 33884  86.3691   6.3031 0009152 293.2876 198.5950 14.77568890889623"}}, "geometry": {"type": "Point", "coordinates": [173.74028168982093, 73.54169222666532]}}, {"type": "Feature", "properties": {"norad_id": 33886, "name": "IRIDIUM 33 DEB", "group": "iridium-33-debris", "lat": -81.1054713748874, "lon": -92.34515970919321, "alt_km": 772.9430948653862, "timestamp": "2025-12-20T20:38:44.826493+00:00", "meta": {"OBJECT_NAME": "IRIDIUM 33 DEB", "OBJECT_ID": "1997-051BF", "EPOCH": "2025-12-20T04:30:59.629824", "MEAN_MOTION": 14.36060026, "ECCENTRICITY": 0.00129406, "INCLINATION": 86.3824, "RA_OF_ASC_NODE": 64.0937, "ARG_OF_PERICENTER": 214.8028, "MEAN_ANOMALY": 174.7554, "EPHEMERIS_TYPE": 0, "CLASSIFICATION_TYPE": "U", "NORAD_CAT_ID": 33886, "ELEMENT_SET_NO": 999, "REV_AT_EPOCH": 88159, "BSTAR": 0.00013722788, "MEAN_MOTION_DOT": 4.19e-06, "MEAN_MOTION_DDOT": 0}, "tle": {"line1": "1 33886U 97051BF  25354.18819016  .00000419  00000+0  13723-3 0  9995", "line2": "2 33886  86.3824  64.0937 0012940 214.8028 174.7554 14.36060026881593"}}, "geometry": {"type": "Point", "coordinates": [-92.34515970919321, -81.1054713748874]}}, {"type": "Feature", "properties": {"norad_id": 33887, "name": "IRIDIUM 33 DEB", "group": "iridium-33-debris", "lat": -52.06777121158132, "lon": -175.35011843506175, "alt_km": 771.778933959471, "timestamp": "2025-12-20T20:38:44.826503+00:00", "meta": {"OBJECT_NAME": "IRIDIUM 33 DEB", "OBJECT_ID": "1997-051BG", "EPOCH": "2025-12-20T01:28:45.668352", "MEAN_MOTION": 14.37227129, "ECCENTRICITY": 0.00051987, "INCLINATION": 86.3041, "RA_OF_ASC_NODE": 0.2367, "ARG_OF_PERICENTER": 196.9799, "MEAN_ANOMALY": 225.7634, "EPHEMERIS_TYPE": 0, "CLASSIFICATION_TYPE": "U", "NORAD_CAT_ID": 33887, "ELEMENT_SET_NO": 999, "REV_AT_EPOCH": 88270, "BSTAR": 0.00010697181, "MEAN_MOTION_DOT": 3.38e-06, "MEAN_MOTION_DDOT": 0}, "tle": {"line1": "1 33887U 97051BG  25354.06163968  .00000338  00000+0  10697-3 0  9998", "line2": "2 33887  86.3041   0.2367 0005198 196.9799 225.7634 14.37227129882706"}}, "geometry": {"type": "Point", "coordinates": [-175.35011843506175, -52.06777121158132]}}, {"type": "Feature", "properties": {"norad_id": 33953, "name": "IRIDIUM 33 DEB", "group": "iridium-33-debris", "lat": -76.64244150740595, "lon": -114.300207144495, "alt_km": 728.2394760661955, "timestamp": "2025-12-20T20:38:44.826514+00:00", "meta": {"OBJECT_NAME": "IRIDIUM 33 DEB", "OBJECT_ID": "1997-051BN", "EPOCH": "2025-12-20T03:06:09.003168", "MEAN_MOTION": 14.55388304, "ECCENTRICITY": 0.00179538, "INCLINATION": 86.3841, "RA_OF_ASC_NODE": 50.5724, "ARG_OF_PERICENTER": 80.2831, "MEAN_ANOMALY": 309.4365, "EPHEMERIS_TYPE": 0, "CLASSIFICATION_TYPE": "U", "NORAD_CAT_ID": 33953, "ELEMENT_SET_NO": 999, "REV_AT_EPOCH": 88411, "BSTAR": 0.00068975836, "MEAN_MOTION_DOT": 3.021e-05, "MEAN_MOTION_DDOT": 0}, "tle": {"line1": "1 33953U 97051BN  25354.12927087  .00003021  00000+0  68976-3 0  9994", "line2": "2 33953  86.3841  50.5724 0017953  80.2831 309.4365 14.55388304884118"}}, "geometry": {"type": "Point", "coordinates": [-114.300207144495, -76.64244150740595]}}, {"type": "Feature", "properties": {"norad_id": 33960, "name": "IRIDIUM 33 DEB", "group": "iridium-33-debris", "lat": -38.0925086627354, "lon": 108.62798155719244, "alt_km": 623.4774021646172, "timestamp": "2025-12-20T20:38:44.826525+00:00", "meta": {"OBJECT_NAME": "IRIDIUM 33 DEB", "OBJECT_ID": "1997-051BV", "EPOCH": "2025-12-20T14:00:18.900576", "MEAN_MOTION": 14.85550436, "ECCENTRICITY": 0.00074031, "INCLINATION": 86.2542, "RA_OF_ASC_NODE": 285.8147, "ARG_OF_PERICENTER": 48.6051, "MEAN_ANOMALY": 130.7138, "EPHEMERIS_TYPE": 0, "CLASSIFICATION_TYPE": "U", "NORAD_CAT_ID": 33960, "ELEMENT_SET_NO": 999, "REV_AT_EPOCH": 88983, "BSTAR": 0.0018756443, "MEAN_MOTION_DOT": 0.00016261, "MEAN_MOTION_DDOT": 0}, "tle": {"line1": "1 33960U 97051BV  25354.58355209  .00016261  00000+0  18756-2 0  9993", "line2": "2 33960  86.2542 285.8147 0007403  48.6051 130.7138 14.85550436889833"}}, "geometry": {"type": "Point", "coordinates": [108.62798155719244, -38.0925086627354]}}, {"type": "Feature", "properties": {"norad_id": 33966, "name": "IRIDIUM 33 DEB", "group": "iridium-33-debris", "lat": -35.27462481136515, "lon": -134.89925378496412, "alt_km": 729.6850450728189, "timestamp": "2025-12-20T20:38:44.826536+00:00", "meta": {"OBJECT_NAME": "IRIDIUM 33 DEB", "OBJECT_ID": "1997-051CB", "EPOCH": "2025-12-20T09:48:07.873344", "MEAN_MOTION": 14.49621404, "ECCENTRICITY": 0.00082754, "INCLINATION": 86.3914, "RA_OF_ASC_NODE": 42.7361, "ARG_OF_PERICENTER": 163.9635, "MEAN_ANOMALY": 214.8558, "EPHEMERIS_TYPE": 0, "CLASSIFICATION_TYPE": "U", "NORAD_CAT_ID": 33966, "ELEMENT_SET_NO": 999, "REV_AT_EPOCH": 88553, "BSTAR": 0.00035675491, "MEAN_MOTION_DOT": 1.39e-05, "MEAN_MOTION_DDOT": 0}, "tle": {"line1": "1 33966U 97051CB  25354.40842446  .00001390  00000+0  35675-3 0  9991", "line2": "2 33966  86.3914  42.7361 0008275 163.9635 214.8558 14.49621404885535"}}, "geometry": {"type": "Point", "coordinates": [-134.89925378496412, -35.27462481136515]}}, {"type": "Feature", "properties": {"norad_id": 34071, "name": "IRIDIUM 33 DEB", "group": "iridium-33-debris", "lat": -81.38718424697437, "lon": -10.66391752510912, "alt_km": 741.6389068209583, "timestamp": "2025-12-20T20:38:44.826547+00:00", "meta": {"OBJECT_NAME": "IRIDIUM 33 DEB", "OBJECT_ID": "1997-051CE", "EPOCH": "2025-12-20T07:46:13.736640", "MEAN_MOTION": 14.49495052, "ECCENTRICITY": 0.00099424, "INCLINATION": 86.3449, "RA_OF_ASC_NODE": 14.5318, "ARG_OF_PERICENTER": 87.1409, "MEAN_ANOMALY": 273.0933, "EPHEMERIS_TYPE": 0, "CLASSIFICATION_TYPE": "U", "NORAD_CAT_ID": 34071, "ELEMENT_SET_NO": 999, "REV_AT_EPOCH": 88444, "BSTAR": 0.00041457819, "MEAN_MOTION_DOT": 1.609e-05, "MEAN_MOTION_DDOT": 0}, "tle": {"line1": "1 34071U 97051CE  25354.32377010  .00001609  00000+0  41458-3 0  9999", "line2": "2 34071  86.3449  14.5318 0009942  87.1409 273.0933 14.49495052884444"}}, "geometry": {"type": "Point", "coordinates": [-10.66391752510912, -81.38718424697437]}}]}